TRANSPORTER-16 OBJECT CH
1 68495U 26067CH  26103.93297755  .00000450  00000+0  53487-4 0  9991
2 68495  97.7560  63.1781 0001892 193.5780 166.5387 14.89054368  2148
